State,City,Station Name,Longitude,Latitude
Andhra Pradesh,Amaravati,"Secretariat,Amaravati,AndhraPradesh",80.51600000000008,16.514000000000067
Andhra Pradesh,Anantapur,"Gulzarpet,Anantapur,AndhraPradesh",77.59475000000003,14.68002000000007
Andhra Pradesh,Rajamahendravaram,"AnandKalaKshetram,Rajamahendravaram,AndhraPradesh",81.77784000000008,17.005170000000078
Andhra Pradesh,Tirupati,"Tirumala,Tirupati,AndhraPradesh",79.41989000000007,13.635510000000068
Andhra Pradesh,Vijayawada,"PWDGrounds,Vijayawada,AndhraPradesh",80.63041000000004,16.50753000000003
Andhra Pradesh,Visakhapatnam,"GVMCorporation,Visakhapatnam,AndhraPradesh",83.30259000000007,17.714040000000068
Arunachal Pradesh,Naharlagun,"Naharlagun,Naharlagun,ArunachalPradesh",93.69792000000007,27.108380000000068
Assam,Guwahati,"IITG,Guwahati,Assam",91.68684000000007,26.196420000000046
Assam,,"PanBazaar,Guwahati,Assam",91.74724000000003,26.187770000000057
Assam,,"RailwayColony,Guwahati,Assam",91.78584000000006,26.179460000000063
Assam,Sivasagar,"GirlsCollege,Sivasagar,Assam",94.63484000000005,26.987630000000024
Assam,,"GirlsCollege,Sivasagar,Assam",94.63484000000005,26.987630000000024
Bihar,Araria,"KharahiyaBasti,Araria,Bihar",87.36959000000007,26.067620000000034
Bihar,Arrah,"NewDMOffice,Arrah,Bihar",84.67780000000005,25.55821000000003
Bihar,Aurangabad,"GurdeoNagar,Aurangabad,Bihar",84.36580000000004,24.75362000000007
Bihar,Begusarai,"DRCCAnandpur,Begusarai,Bihar",86.13241000000005,25.43572000000006
Bihar,Bettiah,"KamalnathNagar,Bettiah,Bihar",84.52511000000004,26.80352000000005
Bihar,,"DMOffice_KachariChowk,Bhagalpur,Bihar",87.11006500157995,25.378229995434275
Bihar,Bhagalpur,"Mayaganj,Bhagalpur,Bihar",87.01007000000004,25.262880000000052
Bihar,Bihar Sharif,"DMColony,BiharSharif,Bihar",85.51380000000006,25.201400000000035
Bihar,Buxar,"CentralJail,Buxar,Bihar",87.00764717744666,25.25357871640365
Bihar,Chhapra,"DarshanNagar,Chhapra,Bihar",84.74300000000005,25.781940000000077
Bihar,Darbhanga,"TownHall,Bihar",86.47926000000007,25.510340000000042
Bihar,,"Collectorate,Gaya,Bihar",84.74215000000004,25.77860000000004
Bihar,Gaya,"Kareemganj,Gaya,Bihar",84.98939000000007,24.795010000000048
Bihar,,"SFTIKusdihra,Gaya,Bihar",84.98362000000003,24.760320000000036
Bihar,Hajipur,"IndustrialArea,Hajipur,Bihar",85.24358000000007,25.691990000000033
Bihar,Katihar,"Mirchaibari,Katihar,Bihar",87.57722000000007,25.53815000000003
Bihar,Kishanganj,"SDMOffice_Khagra,Kishanganj,Bihar",87.69071000000008,26.320920000000058
Bihar,Manguraha,"ForestRestHouse,Manguraha,Bihar",84.60666000000003,26.562440000000038
Bihar,Motihari,"GandakColony,Motihari,Bihar",84.89137000000005,26.639590000000055
Bihar,Munger,"TownHall,Munger,Bihar",86.47158464141827,25.37708091431604
Bihar,,"BuddhaColony,Muzaffarpur,Bihar",85.40687000000008,26.093300000000056
Bihar,Muzaffarpur,"MIT,Bihar",85.34422502636176,26.166954993348078
Bihar,,"MuzaffarpurCollectorate,Muzaffarpur,Bihar",85.48094000000003,25.279700000000048
Bihar,,"DRMOfficeDanapur,Patna,Bihar",85.04453000000007,25.58504000000005
Bihar,Patna,"Govt.HighSchoolShikarpur,Patna,Bihar",85.01497000000006,25.602960000000053
Bihar,,"IGSCPlanetariumComplex,Patna,Bihar",85.13158000000004,25.613270000000057
Bihar,,"Muradpur,Patna,Bihar",85.16413000000006,25.61909000000003
Bihar,,"RajbansiNagar,Patna,Bihar",85.10635000000008,25.599030000000027
Bihar,,"Samanpura,Patna,Bihar",85.08528000000007,25.60767000000004
Bihar,Purnia,"MariamNagar,Purnia,Bihar",87.44034000000005,25.822610000000054
Bihar,Rajgir,"DangiTola,Rajgir,Bihar",85.42374000000007,25.02756000000005
Bihar,Saharsa,"PoliceLine,Saharsa,Bihar",86.58863000000008,25.898480000000063
Bihar,Samastipur,"DMOffice_Kasipur,Samastipur,Bihar",85.77657000000005,25.858490000000074
Bihar,Sasaram,"DadaPeer,Sasaram,Bihar",84.00631000000004,24.953070000000025
Bihar,Siwan,"ChitraguptaNagar,Siwan,Bihar",84.37347000000005,24.75849000000005
Chandigarh,,"Sector22,Chandigarh,Chandigarh",76.77096000000006,30.734200000000044
Chandigarh,Chandigarh,"Sector,Chandigarh",76.78941388261886,30.753435565853795
Chandigarh,,"Sector,Chandigarh",76.78941388261886,30.753435565853795
Chhattisgarh,,"32Bungalows,Bhilai,Chhattisgarh",81.31212000000005,21.194350000000043
Chhattisgarh,Bhilai,"CivicCenter,Bhilai,Chhattisgarh",81.33964000000003,21.18133000000006
Chhattisgarh,,"Hathkhoj,Bhilai,Chhattisgarh",81.41131000000007,21.226300000000037
Chhattisgarh,Bilaspur,"Mangala,Bilaspur,Chhattisgarh",82.12721000000005,22.107610000000022
Chhattisgarh,Korba,"Rampur,Korba,Chhattisgarh",82.99085000000008,22.224920000000054
Chhattisgarh,,"AIIMS,Raipur,Chhattisgarh",81.58107000000007,21.25845000000004
Chhattisgarh,Raipur,"KrishakNagar,Raipur,Chhattisgarh",81.70943000000005,21.23228000000006
Chhattisgarh,,"SiltaraPhase,Chhattisgarh",81.66278000000005,21.36140000000006
Delhi,,"Alipur,Delhi,Delhi",77.14427000000006,28.798050000000046
Delhi,Delhi,"AnandVihar,Delhi,Delhi",77.31373000000008,28.653560000000027
Delhi,,"AshokVihar,Delhi,Delhi",77.17600000000004,28.690410000000043
Delhi,,"AyaNagar,Delhi,Delhi",77.12974000000008,28.47177000000005
Delhi,,"Bawana,Delhi,Delhi",77.04524000000004,28.79768000000007
Delhi,,"BurariCrossing,Delhi,Delhi",77.19770121903692,28.728611405096387
Delhi,,"CRRIMathuraRoad,Delhi,Delhi",77.24038000000007,28.604870000000062
Delhi,,"ChandniChowk,Delhi,Delhi",77.23661140387829,28.655939724854154
Delhi,,"DTU,Delhi,Delhi",77.11778000000004,28.744930000000068
Delhi,,"Dr.KarniSinghShootingRange,Delhi,Delhi",77.21693000000005,28.63409000000007
Delhi,,"Dwarka,Delhi",77.04015000000004,28.59012000000007
Delhi,,"EastArjunNagar,Delhi,Delhi",77.29205000000007,28.657710000000066
Delhi,,"IGIAirport(T3),Delhi,Delhi",77.08554000000004,28.55573000000004
Delhi,,"IHBAS,DilshadGarden,Delhi,Delhi",77.30666000000008,28.67933000000005
Delhi,,"ITO,Delhi,Delhi",77.24422000000004,28.628960000000063
Delhi,,"Jahangirpuri,Delhi,Delhi",77.17557000000005,28.728770000000054
Delhi,,"JawaharlalNehruStadium,Delhi,Delhi",77.21693000000005,28.63409000000007
Delhi,,"LodhiRoad,Delhi,Delhi",77.22847003360675,28.582220007005247
Delhi,,"LodhiRoad,Delhi,Delhi",77.22847003360675,28.582220007005247
Delhi,,"MajorDhyanChandNationalStadium,Delhi,Delhi",77.21693000000005,28.63409000000007
Delhi,,"MandirMarg,Delhi,Delhi",77.20163863395116,28.634065068638623
Delhi,,"Mundka,Delhi,Delhi",77.03159000000005,28.691500000000076
Delhi,,"NSITDwarka,Delhi,Delhi",77.03522000000004,28.608020000000067
Delhi,,"Najafgarh,Delhi,Delhi",76.99740000000008,28.62510000000003
Delhi,,"Narela,Delhi,Delhi",77.07695000000007,28.83979000000005
Delhi,,"NehruNagar,Delhi,Delhi",77.16613000000007,28.663950000000057
Delhi,,"NorthCampus,DU,Delhi,Delhi",77.20416000000006,28.69473000000005
Delhi,,"OkhlaPhase,Delhi",77.28197000000006,28.525550000000067
Delhi,,"Patparganj,Delhi,Delhi",77.30766000000006,28.629490000000033
Delhi,,"PunjabiBagh,Delhi,Delhi",77.12500000000006,28.666340000000048
Delhi,,"Pusa,Delhi,Delhi",77.25953961148787,28.728111757266227
Delhi,,"Pusa,Delhi,Delhi",77.25953961148787,28.728111757266227
Delhi,,"RKPuram,Delhi,Delhi",77.18808000000007,28.56153000000006
Delhi,,"Rohini,Delhi,Delhi",77.10401000000007,28.733560000000068
Delhi,,"Shadipur,Delhi,Delhi",77.14496979636768,28.6596912963143
Delhi,,"Sirifort,Delhi,Delhi",77.21544000000006,28.549920000000043
Delhi,,"SoniaVihar,Delhi,Delhi",77.24585000000008,28.72942000000006
Delhi,,"SriAurobindoMarg,Delhi,Delhi",77.19621000000006,28.53684000000004
Delhi,,"VivekVihar,Delhi,Delhi",77.31885000000005,28.668930000000046
Delhi,,"Wazirpur,Delhi,Delhi",77.15674000000007,28.695440000000076
Gujarat,,"Chandkheda,Ahmedabad,Gujarat",72.57989000000003,23.112140000000068
Gujarat,Ahmedabad,"Gyaspur,Ahmedabad,Gujarat",72.53676000000007,22.967200000000048
Gujarat,,"Maninagar,Ahmedabad,Gujarat",72.60731000000004,23.005260000000078
Gujarat,,"Raikhad,Ahmedabad,Gujarat",72.58102000000008,23.01738000000006
Gujarat,,"Rakhial,Ahmedabad,Gujarat",72.62688000000003,23.018350000000055
Gujarat,,"SACISROBopal,Ahmedabad,Gujarat",72.47247000000004,23.030320000000074
Gujarat,,"SACISROSatellite,Ahmedabad,Gujarat",72.51940000000008,23.021330000000034
Gujarat,,"SVPIAirportHansol,Ahmedabad,Gujarat",72.62130000000008,23.070760000000064
Gujarat,,"SardarVallabhbhaiPatelStadium,Ahmedabad,Gujarat",72.60025000000007,23.027780000000064
Gujarat,Ankleshwar,"GIDC,Ankleshwar,Gujarat",73.00323998071066,21.6248999764843
Gujarat,,"GIFTCity,Gandhinagar,Gujarat",72.68028000000004,23.164230000000032
Gujarat,Gandhinagar,"IIPHGLekawada,Gandhinagar,Gujarat",72.69476000000003,23.25297000000006
Gujarat,,"Sector,Gujarat",72.52922568471155,23.073994392759914
Gujarat,Nandesari,"GIDC,Nandesari,Gujarat",73.08759640778139,22.41351418360954
Gujarat,Vapi,"Phase,Gujarat",72.28179000000006,23.033280000000047
Gujarat,Vatva,"Phase,Gujarat",72.28179000000006,23.033280000000047
Haryana,Ambala,"PattiMehar,Ambala,Haryana",76.77701000000008,30.378360000000043
Haryana,Bahadurgarh,"AryaNagar,Bahadurgarh,Haryana",76.93275000000006,28.693790000000035
Haryana,Ballabgarh,"NathuColony,Ballabgarh,Haryana",77.31090000000006,28.293710000000033
Haryana,Bhiwani,"H.B.Colony,Bhiwani,Haryana",76.13968000000006,28.793040000000076
Haryana,Charkhi Dadri,"MiniSecretariat,CharkhiDadri,Haryana",76.24963000000008,28.60328000000004
Haryana,Dharuhera,"MunicipalCorporationOffice,Dharuhera,Haryana",76.83211000000006,29.97118000000006
Haryana,,"NewIndustrialTown,Faridabad,Haryana",77.29699000000005,28.372760000000028
Haryana,Faridabad,"Sector11,Faridabad,Haryana",77.32000000000005,28.376500000000078
Haryana,,"Sector30,Faridabad,Haryana",77.32116000000008,28.44605000000007
Haryana,,"Sector,Haryana",76.86269000000004,30.37871000000007
Haryana,Fatehabad,"HudaSector,Fatehabad,Haryana",75.49408000000005,29.48598000000004
Haryana,,"NISEGwalPahari,Gurugram,Haryana",77.06857000000008,28.477180000000033
Haryana,Gurugram,"Sector,Haryana",76.86269000000004,30.37871000000007
Haryana,,"TeriGram,Gurugram,Haryana",77.14598000000007,28.426010000000076
Haryana,,"VikasSadan,Gurugram,Haryana",77.02872000000008,28.44972000000007
Haryana,Hisar,"UrbanEstate,Haryana",76.33761000000004,29.31782000000004
Haryana,Jind,"PoliceLines,Jind,Haryana",76.34922000000006,29.30863000000005
Haryana,Kaithal,"RishiNagar,Kaithal,Haryana",76.41477000000003,29.80574000000007
Haryana,Karnal,"Sector,Haryana",76.86269000000004,30.37871000000007
Haryana,Kurukshetra ,"Sector,Haryana",76.86269000000004,30.37871000000007
Haryana,Mandikhera,"GeneralHospital,Mandikhera,Haryana",76.99406000000005,27.89665000000008
Haryana,Manesar,"Sector,Haryana",76.86269000000004,30.37871000000007
Haryana,Narnaul,"ShastriNagar,Narnaul,Haryana",76.11059000000006,28.066340000000025
Haryana,Palwal ,"ShyamNagar,Palwal,Haryana",77.33095000000003,28.147260000000074
Haryana,Panchkula,"Sector,Haryana",76.86269000000004,30.37871000000007
Haryana,Panipat,"Sector,Haryana",76.86269000000004,30.37871000000007
Haryana,Rohtak,"MDUniversity,Rohtak,Haryana",76.60874000000007,28.885140000000035
Haryana,Sirsa,"F,Haryana",76.34014175200008,29.196470599000065
Haryana,Sonipat,"Murthal,Sonipat,Haryana",77.06329000000005,29.030290000000036
Haryana,Yamuna Nagar,"GobindPura,YamunaNagar,Haryana",77.27592000000004,30.150310000000047
Himachal Pradesh,Baddi,"HIMUDAComplexPhase,HimachalPradesh",77.25000000000006,31.916670000000067
Jammu and Kashmir,Srinagar,"Rajbagh,Srinagar,JammuandKashmir",74.82549000000006,34.06786000000005
Jharkhand,Jorapokhar,"TataStadium,Jorapokhar,Jharkhand",86.39350000000007,23.716500000000053
Karnataka,Bagalkot,"Vidayagiri,Bagalkot,Karnataka",75.65874000000008,16.17602000000005
Karnataka,Belgaum,"RamteerthNagar,Belgaum,Karnataka",74.54594000000003,15.896040000000028
Karnataka,,"BTMLayout,Bengaluru,Karnataka",77.60999000000004,12.914950000000033
Karnataka,Bengaluru,"BWSSBKadabesanahalli,Bengaluru,Karnataka",77.58690000000007,12.966180000000065
Karnataka,,"BapujiNagar,Bengaluru,Karnataka",77.54010000000005,12.956000000000074
Karnataka,,"CityRailwayStation,Bengaluru,Karnataka",77.56712000000005,12.976370000000031
Karnataka,,"Hebbal,Bengaluru,Karnataka",77.58903000000004,13.049810000000036
Karnataka,,"HombegowdaNagar,Bengaluru,Karnataka",77.59493000000003,12.949940000000026
Karnataka,,"Jayanagar5thBlock,Bengaluru,Karnataka",77.58690000000007,12.966180000000065
Karnataka,,"Peenya,Bengaluru,Karnataka",77.52654000000007,13.031880000000058
Karnataka,,"SaneguravaHalli,Bengaluru,Karnataka",77.25508000000008,13.16453000000007
Karnataka,,"SilkBoard,Bengaluru,Karnataka",77.62278918476453,12.91733163698651
Karnataka,Bidar,"Naubad,Bidar,Karnataka",77.47613000000007,17.935080000000028
Karnataka,Chamarajanagar,"Urban,Chamarajanagar,Karnataka",76.93954000000008,11.922480000000064
Karnataka,Chikkaballapur,"ChikkaballapurRural,Chikkaballapur,Karnataka",77.72851000000009,13.430990000000065
Karnataka,Chikkamagaluru,"KalyanaNagara,Chikkamagaluru,Karnataka",75.79563000000007,13.319120000000055
Karnataka,Davanagere,"DevarajUrsBadavane,Davanagere,Karnataka",75.91528000000005,14.459300000000042
Karnataka,Gadag,"PanchalNagar,Gadag,Karnataka",75.73016000000007,15.528010000000052
Karnataka,Hassan,"B.Katihalli,Hassan,Karnataka",75.81996000000004,12.980990000000077
Karnataka,Haveri,"AshwiniNagar,Haveri,Karnataka",75.39312000000007,14.799380000000042
Karnataka,Hubballi,"DeshpandeNagar,Hubballi,Karnataka",75.13596000000007,15.359000000000037
Karnataka,Kalaburagi,"LalBahadurShastriNagar,Kalaburagi,Karnataka",76.86322000000007,17.329410000000053
Karnataka,Kolar,"TamakaInd.Area,Kolar,Karnataka",78.16558000000003,13.130880000000047
Karnataka,Koppal,"DiwatorNagar,Koppal,Karnataka",76.16827000000006,15.349180000000047
Karnataka,Madikeri,"StuartHill,Madikeri,Karnataka",75.73172000000005,12.424000000000035
Karnataka,Mangalore,"Kadri,Mangalore,Karnataka",74.85329000000007,12.894010000000037
Karnataka,Mysuru,"Hebbal1stStage,Mysuru,Karnataka",76.65303000000006,12.309060000000045
Karnataka,Raichur,"HajiColony,Raichur,Karnataka",77.35567000000003,16.205460000000073
Karnataka,Ramanagara,"VijayNagar,Ramanagara,Karnataka",76.21471000000008,15.05135000000007
Karnataka,Shivamogga,"VinobaNagara,Shivamogga,Karnataka",75.55931000000004,13.950540000000046
Karnataka,Udupi,"Brahmagiri,Udupi,Karnataka",74.74361000000005,13.342360000000042
Karnataka,Vijayapura,"Ibrahimpur,Vijayapura,Karnataka",75.72573000000006,16.80162000000007
Karnataka,Yadgir,"CollectorOffice,Yadgir,Karnataka",77.13665000000003,16.760920000000056
Kerala,Eloor,"Udyogamandal,Eloor,Kerala",76.31013000000007,10.074100000000044
Kerala,Ernakulam,"Kacheripady,Ernakulam,Kerala",76.28342000000004,9.986300000000028
Kerala,Kannur,"Thavakkara,Kannur,Kerala",75.37087000000008,11.865680000000054
Kerala,Kochi,"Vyttila,Kochi,Kerala",76.31729000000007,9.971130000000073
Kerala,Kollam,"Polayathode,Kollam,Kerala",76.60896000000008,8.878440000000069
Kerala,Kozhikode,"Palayam,Kozhikode,Kerala",75.78547000000003,11.246210000000076
Kerala,,"Kariavattom,Thiruvananthapuram,Kerala",76.89037000000008,8.569510000000037
Kerala,Thiruvananthapuram,"Plammoodu,Thiruvananthapuram,Kerala",76.94339000000008,8.512460000000033
Kerala,Thrissur,"CorporationGround,Thrissur,Kerala",76.19866000000007,10.517420000000072
Madhya Pradesh,,"ParyavaranParisar,Bhopal,MadhyaPradesh",77.42603000000008,23.211010000000044
Madhya Pradesh,Bhopal,"TTNagar,Bhopal,MadhyaPradesh",77.39717000000007,23.230290000000025
Madhya Pradesh,Damoh,"ShrivastavColony,Damoh,MadhyaPradesh",78.94862000000006,22.066310000000044
Madhya Pradesh,Dewas,"BhopalChauraha,Dewas,MadhyaPradesh",76.89188201763297,23.893353969196763
Madhya Pradesh,,"CityCenter,Gwalior,MadhyaPradesh",78.18871000000007,26.206000000000074
Madhya Pradesh,Gwalior,"PhoolBagh,Gwalior,MadhyaPradesh",78.16956000000005,26.213810000000024
Madhya Pradesh,Indore,"ChhotiGwaltoli,Indore,MadhyaPradesh",75.87305000000003,22.713810000000024
Madhya Pradesh,Jabalpur,"Marhatal,Jabalpur,MadhyaPradesh",79.93372000000005,23.167160000000024
Madhya Pradesh,Katni,"GoleBazar,Katni,MadhyaPradesh",79.92866000000004,23.17005000000006
Madhya Pradesh,Maihar,"Sahilara,Maihar,MadhyaPradesh",80.73082000000005,24.26490000000007
Madhya Pradesh,Mandideep,"Sector,MadhyaPradesh",77.47254000000004,23.249330000000043
Madhya Pradesh,Pithampur,"Sector,MadhyaPradesh",77.47254000000004,23.249330000000043
Madhya Pradesh,Ratlam,"ShasthriNagar,Ratlam,MadhyaPradesh",75.04067000000003,23.33287000000007
Madhya Pradesh,Sagar,"DeenDayalNagar,Sagar,MadhyaPradesh",78.20682000000005,26.26401000000004
Madhya Pradesh,Satna,"BandhavgarColony,Satna,MadhyaPradesh",80.85398000000004,24.572500000000048
Madhya Pradesh,Singrauli,"SuryakiranBhawanNCL,Singrauli,MadhyaPradesh",82.66560000000004,24.194680000000062
Madhya Pradesh,Ujjain,"MahakaleshwarTemple,Ujjain,MadhyaPradesh",75.76927000000006,23.181830000000048
Maharashtra,,"MoreChowkWaluj,Aurangabad,Maharashtra",75.22761000000008,19.799270000000035
Maharashtra,Chandrapur,"Chandrapur,Chandrapur,Maharashtra",79.29677000000004,19.96652000000006
Maharashtra,,"MIDCKhutala,Chandrapur,Maharashtra",72.86693581409806,19.032027927655317
Maharashtra,Kalyan,"Khadakpada,Kalyan,Maharashtra",73.14255000000003,19.26135000000005
Maharashtra,Mumbai,"BandraKurlaComplex,Mumbai,Maharashtra",72.86257000000006,19.06089000000003
Maharashtra,,"Bandra,Mumbai,Maharashtra",72.86036000000007,19.077150000000074
Maharashtra,,"BorivaliEast,Mumbai,Maharashtra",72.86465000000004,19.227910000000065
Maharashtra,,"BorivaliEast,Mumbai,Maharashtra",72.86465000000004,19.227910000000065
Maharashtra,,"Chakala,Maharashtra",72.86236000000008,19.10836000000006
Maharashtra,,"ChhatrapatiShivajiIntl.Airport(T2),Mumbai,Maharashtra",72.87430000000006,19.099450000000047
Maharashtra,,"Colaba,Mumbai,Maharashtra",72.82592000000005,18.915400000000034
Maharashtra,,"Deonar,Mumbai,Maharashtra",72.91116000000005,19.041870000000074
Maharashtra,,"KandivaliEast,Mumbai,Maharashtra",72.86954000000003,19.205790000000036
Maharashtra,,"Khindipada,Maharashtra",72.93014000000005,19.166240000000073
Maharashtra,,"Kurla,Mumbai,Maharashtra",72.89049000000006,19.058910000000026
Maharashtra,,"MaladWest,Mumbai,Maharashtra",72.81667000000004,19.179380000000037
Maharashtra,,"Mazgaon,Mumbai,Maharashtra",72.84575000000007,18.967120000000023
Maharashtra,,"MulundWest,Mumbai,Maharashtra",72.95068000000003,19.174370000000067
Maharashtra,,"NavyNagar,Maharashtra",72.81053000000003,18.898460000000057
Maharashtra,,"Powai,Mumbai,Maharashtra",72.90933000000007,19.123150000000066
Maharashtra,,"SiddharthNagar,Maharashtra",73.81897000000004,18.783030000000053
Maharashtra,,"Sion,Mumbai,Maharashtra",72.85000000000008,19.033330000000035
Maharashtra,,"VasaiWest,Mumbai,Maharashtra",72.81936000000007,19.37059000000005
Maharashtra,,"VileParleWest,Mumbai,Maharashtra",72.85209000000003,19.108790000000056
Maharashtra,,"Worli,Mumbai,Maharashtra",72.81691000000006,19.007580000000075
Maharashtra,Nagpur,"OppGPOCivilLines,Nagpur,Maharashtra",79.07751000000007,21.148910000000058
Maharashtra,Nashik,"GangapurRoad,Nashik,Maharashtra",73.76803737729725,20.02205995558991
Maharashtra,Navi Mumbai,"Airoli,NaviMumbai,Maharashtra",72.99829000000005,19.155560000000037
Maharashtra,,"Mahape,NaviMumbai,Maharashtra",73.00890804007466,19.113080633409577
Maharashtra,,"Nerul,NaviMumbai,Maharashtra",73.02493000000004,19.00882000000007
Maharashtra,,"Sector,Maharashtra",73.8306803439499,18.646364278827065
Maharashtra,Pune,"Alandi,Pune,Maharashtra",73.89868000000007,18.677560000000028
Maharashtra,,"Bhosari,Pune,Maharashtra",73.83748000000008,18.638730000000066
Maharashtra,,"Hadapsar,Pune,Maharashtra",73.92718000000008,18.502460000000042
Maharashtra,,"KarveRoad,Pune,Maharashtra",73.81486577056343,18.493228183432702
Maharashtra,,"MIT,Maharashtra",76.36972000000003,18.717300000000023
Maharashtra,,"MhadaColony,Pune,Maharashtra",75.90116000000006,17.629620000000045
Maharashtra,,"RevenueColony,Maharashtra",73.68093000000005,18.734560000000045
Maharashtra,,"TransportNagar,Maharashtra",73.76084000000003,18.660380000000032
Maharashtra,Solapur,"Solapur,Solapur,Maharashtra",75.90685000000008,17.658040000000028
Maharashtra,Thane,"PimpleshwarMandir,Thane,Maharashtra",73.00670000000008,19.109500000000025
Manipur,Imphal,"DMCollegeofScience,Imphal,Manipur",93.92864000000009,24.807560000000024
Manipur,,"ManipurUniversity,Imphal,Manipur",93.92966000000007,24.75416000000007
Meghalaya ,Shillong,"JNStadium,Shillong,Meghalaya",91.88313000000005,25.56892000000005
Meghalaya ,,"Lumpyngngad,Shillong,Meghalaya",91.55827000000005,25.30794000000003
Mizoram,Aizawl,"Sikulpuikawn,Aizawl,Mizoram",92.71870000000007,23.718030000000056
Nagaland,Kohima,"PWDJuction,Kohima,Nagaland",94.09311000000008,25.66288000000003
Odisha,Brajrajnagar,"GMOffice,Brajrajnagar,Odisha",83.91667000000007,21.816670000000045
Odisha,Talcher,"TalcherCoalfields,Talcher,Odisha",85.23354000000006,20.94927000000007
Puducherry,Puducherry,"JawaharNagar,Puducherry,Puducherry",79.80321000000004,11.929610000000025
Punjab,Amritsar,"GoldenTemple,Amritsar,Punjab",74.87738000000007,31.621340000000032
Punjab,Bathinda,"HardevNagar,Bathinda,Punjab",75.55428000000006,31.337920000000054
Punjab,Jalandhar,"CivilLine,Jalandhar,Punjab",75.58369000000005,31.321210000000065
Punjab,Khanna,"KalalMajra,Khanna,Punjab",76.20576000000005,30.744390000000067
Punjab,Ludhiana,"PunjabAgriculturalUniversity,Ludhiana,Punjab",75.80381000000006,30.901350000000036
Punjab,Mandi Gobindgarh,"RIMTUniversity,MandiGobindgarh,Punjab",76.29177000000004,30.665090000000077
Punjab,Patiala,"ModelTown,Patiala,Punjab",76.37059000000005,30.346420000000023
Punjab,Rupnagar,"Ratanpura,Rupnagar,Punjab",76.56398000000007,31.032500000000027
Rajasthan,Ajmer,"CivilLines,Ajmer,Rajasthan",74.64272000000005,26.47294000000005
Rajasthan,Alwar,"MotiDoongri,Alwar,Rajasthan",76.61266000000006,27.553070000000048
Rajasthan,Bhiwadi,"RIICOInd.AreaIII,Bhiwadi,Rajasthan",76.86920000000003,28.198980000000063
Rajasthan,Jaipur,"AdarshNagar,Jaipur,Rajasthan",75.76741000000004,26.806250000000034
Rajasthan,,"PoliceCommissionerate,Jaipur,Rajasthan",75.80090000000007,26.916760000000068
Rajasthan,,"ShastriNagar,Jaipur,Rajasthan",75.80401000000006,26.949370000000044
Rajasthan,Jodhpur,"Collectorate,Jodhpur,Rajasthan",73.70907996488228,24.59457998843611
Rajasthan,Kota,"ShrinathPuram,Kota,Rajasthan",75.81794000000008,25.13984000000005
Rajasthan,Pali,"IndiraColonyVistar,Pali,Rajasthan",73.34391000000005,25.76887000000005
Rajasthan,Udaipur,"AshokNagar,Udaipur,Rajasthan",73.70514000000003,24.587780000000066
Sikkim,Gangtok,"ZeroPointGICI,Gangtok,Sikkim",88.61394000000007,27.331540000000075
Tamil Nadu,Chengalpattu,"CrescentUniversity,Chengalpattu,TamilNadu",79.97661000000005,12.69184000000007
Tamil Nadu,Chennai,"AlandurBusDepot,Chennai,TamilNadu",80.20051000000007,13.00013000000007
Tamil Nadu,,"Arumbakkam,Chennai,TamilNadu",80.20952000000005,13.073080000000061
Tamil Nadu,,"GandhiNagar_Ennore,Chennai,TamilNadu",80.25417000000004,13.006390000000067
Tamil Nadu,,"Kodungaiyur,Chennai,TamilNadu",80.24479000000008,13.136630000000025
Tamil Nadu,,"ManaliVillage,Chennai,TamilNadu",80.27222000000006,13.168710000000033
Tamil Nadu,,"Manali,Chennai,TamilNadu",80.27222000000006,13.168710000000033
Tamil Nadu,,"Perungudi,Chennai,TamilNadu",80.23985000000005,12.96356000000003
Tamil Nadu,,"Royapuram,Chennai,TamilNadu",80.29474000000005,13.114050000000077
Tamil Nadu,,"VelacheryRes.Area,Chennai,TamilNadu",80.21847000000008,12.979340000000036
Tamil Nadu,Coimbatore,"PSGCollegeofArtsandScience,Coimbatore,TamilNadu",76.96612000000005,11.005550000000028
Tamil Nadu,,"SIDCOKurichi,Coimbatore,TamilNadu",76.97259000000008,10.936190000000067
Tamil Nadu,Dindigul,"MendonsaColony,Dindigul,TamilNadu",77.98417000000006,10.357690000000048
Tamil Nadu,Gummidipoondi,"AnthoniPillaiNagar,Gummidipoondi,TamilNadu",80.12682000000007,13.412750000000074
Tamil Nadu,Hosur,"SIPCOTPhase,TamilNadu",77.80633000000006,12.756690000000049
Tamil Nadu,Ooty,"BombayCastel,Ooty,TamilNadu",76.70651000000004,11.40473000000003
Tamil Nadu,Ramanathapuram,"ChalaiBazaar,Ramanathapuram,TamilNadu",78.83261000000005,9.365820000000042
Tamil Nadu,Salem,"SonaCollegeofTechnology,Salem,TamilNadu",78.15538000000004,11.653760000000034
Tamil Nadu,Thoothukudi,"Meelavittan,Thoothukudi,TamilNadu",78.10341000000005,8.816580000000044
Tamil Nadu,Tirupur,"KumaranCollege,Tirupur,TamilNadu",77.32216000000005,11.097430000000031
Tamil Nadu,Vellore,"Vasanthapuram,Vellore,TamilNadu",79.12545000000006,12.918280000000038
Telangana,Hyderabad,"BollaramIndustrialArea,Hyderabad,Telangana",78.33526000000006,17.546280000000024
Telangana,,"CentralUniversity,Hyderabad,Telangana",78.32568000000003,17.455370000000073
Telangana,,"ECILKapra,Hyderabad,Telangana",78.47075000000007,17.394880000000057
Telangana,,"ICRISATPatancheru,Hyderabad,Telangana",78.27499000000006,17.516590000000065
Telangana,,"IDAPashamylaram,Hyderabad,Telangana",78.45841000000007,17.529510000000073
Telangana,,"IITHKandi,Hyderabad,Telangana",78.47075000000007,17.394880000000057
Telangana,,"Kokapet,Hyderabad,Telangana",78.33022000000005,17.405860000000075
Telangana,,"KompallyMunicipalOffice,Hyderabad,Telangana",78.32044000000008,17.483810000000062
Telangana,,"Nacharam_TSIICIALA,Hyderabad,Telangana",78.56672000000003,17.43351000000007
Telangana,,"NewMalakpet,Hyderabad,Telangana",78.50351000000006,17.368670000000066
Telangana,,"Ramachandrapuram,Hyderabad,Telangana",78.29413000000005,17.511670000000038
Telangana,,"Sanathnagar,Hyderabad,Telangana",78.44310000000007,17.45876000000004
Telangana,,"Somajiguda,Hyderabad,Telangana",78.46300000000008,17.420720000000074
Telangana,,"ZooPark,Hyderabad,Telangana",78.45212000000004,17.35053000000005
Tripura,Agartala,"Bardowali,Agartala,Tripura",91.27632000000006,23.824140000000057
Tripura,,"Kunjaban,Agartala,Tripura",91.28847000000007,23.862130000000036
Uttar Pradesh,Agra,"Manoharpur,Agra,UttarPradesh",78.02285000000006,27.229960000000062
Uttar Pradesh,,"Rohta,Agra,UttarPradesh",78.00409000000008,27.11316000000005
Uttar Pradesh,,"SanjayPalace,Agra,UttarPradesh",77.60240000000005,27.141380000000026
Uttar Pradesh,,"Sector,UttarPradesh",77.32610000000005,28.570800000000077
Uttar Pradesh,,"ShahjahanGarden,Agra,UttarPradesh",77.67170000000004,29.685490000000073
Uttar Pradesh,,"Shastripuram,Agra,UttarPradesh",77.93374000000006,27.20509000000004
Uttar Pradesh,Baghpat,"NewCollectorate,Baghpat,UttarPradesh",77.22075000000007,28.945170000000076
Uttar Pradesh,,"SardarPatelInterCollege,Baghpat,UttarPradesh",77.22075000000007,28.945170000000076
Uttar Pradesh,Bareilly,"CivilLines,Bareilly,UttarPradesh",79.41644000000008,28.343990000000076
Uttar Pradesh,,"RajendraNagar,Bareilly,UttarPradesh",79.42635000000007,28.387540000000058
Uttar Pradesh,Bulandshahr,"Yamunapuram,Bulandshahr,UttarPradesh",77.82980000000003,28.410470000000032
Uttar Pradesh,Firozabad,"NaglaBhau,Firozabad,UttarPradesh",78.37940000000003,27.16915000000006
Uttar Pradesh,,"VibhabNagar,Firozabad,UttarPradesh",78.39190000000008,27.164300000000026
Uttar Pradesh,Ghaziabad,"Indirapuram,Ghaziabad,UttarPradesh",77.36272000000008,28.63952000000006
Uttar Pradesh,,"Loni,Ghaziabad,UttarPradesh",77.28393000000005,28.758390000000077
Uttar Pradesh,,"SanjayNagar,Ghaziabad,UttarPradesh",77.47156000000007,28.629180000000076
Uttar Pradesh,,"Vasundhara,Ghaziabad,UttarPradesh",77.36965000000004,28.662500000000023
Uttar Pradesh,Gorakhpur,"MadanMohanMalaviyaUniversityofTechnology,Gorakhpur,UttarPradesh",83.37554000000006,26.754320000000064
Uttar Pradesh,Greater Noida,"KnowledgePark,UttarPradesh",77.46489000000008,28.558980000000076
Uttar Pradesh,,"KnowledgePark,UttarPradesh",77.46489000000008,28.558980000000076
Uttar Pradesh,Hapur,"AnandVihar,Hapur,UttarPradesh",77.75199000000003,28.721400000000074
Uttar Pradesh,Jhansi,"ShivajiNagar,Jhansi,UttarPradesh",78.60081000000008,25.45240000000007
Uttar Pradesh,Kanpur,"FTIKidwaiNagar,Kanpur,UttarPradesh",80.33048000000008,26.435190000000034
Uttar Pradesh,,"IITK,Kanpur,UttarPradesh",80.23508000000004,26.503300000000024
Uttar Pradesh,,"NSIKalyanpur,Kanpur,UttarPradesh",80.25210000000004,26.490660000000048
Uttar Pradesh,,"NehruNagar,Kanpur,UttarPradesh",80.32264000000004,26.471480000000042
Uttar Pradesh,Khurja,"KalindiKunj,Khurja,UttarPradesh",77.85555000000005,28.24923000000007
Uttar Pradesh,Lucknow,"BRAmbedkarUniversity,Lucknow,UttarPradesh",80.93748000000005,26.86095000000006
Uttar Pradesh,,"CentralSchool,Lucknow,UttarPradesh",80.90038000000004,26.83200000000005
Uttar Pradesh,,"GomtiNagar,Lucknow,UttarPradesh",80.99728000000005,26.849230000000034
Uttar Pradesh,,"KukrailPicnicSpot,UttarPradesh",80.99050000000005,26.910340000000076
Uttar Pradesh,,"Lalbagh,Lucknow,UttarPradesh",80.93865000000005,26.846340000000055
Uttar Pradesh,,"NishantGanj,Lucknow,UttarPradesh",80.95282000000003,26.867260000000044
Uttar Pradesh,,"TalkatoraDistrictIndustriesCenter,Lucknow,UttarPradesh",80.92135000000007,26.85471000000007
Uttar Pradesh,Meerut,"GangaNagar,Meerut,UttarPradesh",77.75963000000007,29.007580000000075
Uttar Pradesh,,"JaiBhimNagar,Meerut,UttarPradesh",77.75511000000006,28.960230000000024
Uttar Pradesh,,"PallavpuramPhase2,Meerut,UttarPradesh",77.70459000000005,28.998620000000074
Uttar Pradesh,Moradabad,"BuddhiVihar,Moradabad,UttarPradesh",78.73620000000005,28.83367000000004
Uttar Pradesh,,"EcoHerbalPark,Moradabad,UttarPradesh",78.77684000000005,28.83893000000006
Uttar Pradesh,,"EmploymentOffice,Moradabad,UttarPradesh",83.48221000000007,25.668810000000065
Uttar Pradesh,,"JigarColony,Moradabad,UttarPradesh",78.77240000000006,28.85471000000007
Uttar Pradesh,,"KashiramNagar,Moradabad,UttarPradesh",78.74410000000006,28.849020000000053
Uttar Pradesh,,"LajpatNagar,Moradabad,UttarPradesh",78.78426000000007,28.82462000000004
Uttar Pradesh,,"TransportNagar,Moradabad,UttarPradesh",78.75724000000008,28.799540000000036
Uttar Pradesh,Muzaffarnagar,"NewMandi,Muzaffarnagar,UttarPradesh",77.71059000000008,29.467820000000074
Uttar Pradesh,Noida,"Sector,UttarPradesh",77.32610000000005,28.570800000000077
Uttar Pradesh,,"Sector,UttarPradesh",77.32610000000005,28.570800000000077
Uttar Pradesh,,"Sector,UttarPradesh",77.32610000000005,28.570800000000077
Uttar Pradesh,,"Sector,UttarPradesh",77.32610000000005,28.570800000000077
Uttar Pradesh,Prayagraj,"Jhunsi,Prayagraj,UttarPradesh",81.92509000000007,25.427000000000078
Uttar Pradesh,,"MotilalNehruNIT,Prayagraj,UttarPradesh",81.86148340645448,25.465539130589214
Uttar Pradesh,,"NagarNigam,Prayagraj,UttarPradesh",81.82693000000006,25.449190000000044
Uttar Pradesh,Varanasi,"ArdhaliBazar,Varanasi,UttarPradesh",82.99655000000007,25.33287000000007
Uttar Pradesh,,"Bhelupur,Varanasi,UttarPradesh",82.99755000000005,25.296820000000025
Uttar Pradesh,,"IESDBanarasHinduUniversity,Varanasi,UttarPradesh",82.99655000000007,25.33287000000007
Uttar Pradesh,,"Maldahiya,Varanasi,UttarPradesh",82.99416000000008,25.325780000000066
Uttar Pradesh,Vrindavan,"OmexEternity,Vrindavan,UttarPradesh",77.68251000000004,27.561600000000055
Uttarakhand,Dehradun,"DoonUniversity,Dehradun,Uttarakhand",78.04370000000006,30.26959000000005
West Bengal,Asansol,"AsansolCourtArea,Asansol,WestBengal",86.94751000000008,23.689010000000053
West Bengal,Durgapur,"SidhuKanhuIndoorStadium,Durgapur,WestBengal",87.30801000000008,23.51583000000005
West Bengal,Haldia,"Haldia,Haldia,WestBengal",88.08314000000007,22.062620000000038
West Bengal,Howrah,"BelurMath,Howrah,WestBengal",88.34781000000004,22.63062000000008
West Bengal,,"Ghusuri,Howrah,WestBengal",88.35093000000006,22.612400000000036
West Bengal,,"Padmapukur,Howrah,WestBengal",88.29931000000005,22.56782000000004
West Bengal,Kolkata,"Ballygunge,Kolkata,WestBengal",88.36437000000006,22.53177000000005
West Bengal,,"Bidhannagar,Kolkata,WestBengal",88.41680000000008,22.591510000000028
West Bengal,,"FortWilliam,Kolkata,WestBengal",88.34262000000007,22.559560000000033
West Bengal,,"Jadavpur,Kolkata,WestBengal",88.40856000000008,22.48159000000004
West Bengal,,"RabindraBharatiUniversity,Kolkata,WestBengal",88.35901000000007,22.584380000000067
West Bengal,,"RabindraSarobar,Kolkata,WestBengal",88.35434000000004,22.50923000000006
West Bengal,,"Victoria,Kolkata,WestBengal",88.34332000000006,22.544440000000066
West Bengal,Siliguri,"Ward,WestBengal",88.00000000000006,24.000000000000057
